STARLINK-35340          
1 66022U 25232T   25306.50002315 -.01913630  00000+0 -26803-1 0  9996
2 66022  53.1594 337.5818 0001228  84.0079 203.8269 15.59523509  3075
STARLINK-35394          
1 66023U 25232U   25306.50002315 -.01912077  00000+0 -26780-1 0  9995
2 66023  53.1594 337.5775 0001186  80.6860 209.0649 15.59523016  3074
STARLINK-35410          
1 66024U 25232V   25306.50002315 -.01912389  00000+0 -26784-1 0  9996
2 66024  53.1594 337.5696 0001241  82.9363 210.6487 15.59522959  3075
STARLINK-35280          
1 66025U 25232W   25306.50002315 -.01912060  00000+0 -26779-1 0  9997
2 66025  53.1593 337.5732 0001198  79.2663 212.4013 15.59522859  3017
STARLINK-34812          
1 66026U 25232X   25306.50002315 -.01918210  00000+0 -26874-1 0  9997
2 66026  53.1595 337.5663 0001081  75.3624 220.1365 15.59526944  3024
STARLINK-35341          
1 66027U 25232Y   25306.50002315 -.00212719  00000+0 -19021-2 0  9995
2 66027  53.1652 337.4968 0001035  53.6910 275.8284 15.68325807  3079
STARLINK-35339          
1 66028U 25232Z   25306.50002315 -.00215329  00000+0 -19258-2 0  9998
2 66028  53.1593 337.4933 0000953  80.1183 251.3142 15.68329362  3017
STARLINK-35399          
1 66029U 25232AA  25306.50002315 -.00214490  00000+0 -19182-2 0  9993
2 66029  53.1592 337.4897 0000965  74.4821 258.8662 15.68328645  3016
STARLINK-35431          
1 66030U 25232AB  25306.50002315 -.00239771  00000+0 -21501-2 0  9992
2 66030  53.1590 337.4845 0000944  82.0331 253.2354 15.68343398  3016
STARLINK-35326          
1 66031U 25232AC  25306.50002315 -.00225010  00000+0 -20151-2 0  9994
2 66031  53.1591 337.4814 0000738  88.7167 248.4711 15.68329294  3073
STARLINK-35311          
1 66032U 25232AD  25306.50002315 -.00238053  00000+0 -21341-2 0  9998
2 66032  53.1589 337.4767 0000952  79.5360 259.5632 15.68344324  3075
QIANFAN-91              
1 66033U 25233A   25306.41096838  .00000704  00000+0  28945-3 0  9999
2 66033  88.9947  66.6737 0016192 158.5632 201.6243 14.25912350  2292
