CCSDS_OMM_VERS = 2.0
CREATION_DATE  = 
ORIGINATOR     = 

OBJECT_NAME    = STARLINK-35340
OBJECT_ID      = 2025-232T
CENTER_NAME    = EARTH
REF_FRAME      = TEME
TIME_SYSTEM    = UTC
MEAN_ELEMENT_THEORY = SGP/SGP4

EPOCH          = 2025-11-02T12:00:02.000160
MEAN_MOTION    = 15.59523509
ECCENTRICITY   = .0001228
INCLINATION    = 53.1594
RA_OF_ASC_NODE = 337.5818
ARG_OF_PERICENTER = 84.0079
MEAN_ANOMALY   = 203.8269

EPHEMERIS_TYPE = 0
CLASSIFICATION_TYPE = U
NORAD_CAT_ID   = 66022
ELEMENT_SET_NO = 999
REV_AT_EPOCH   = 307
BSTAR          = -.26803E-1
MEAN_MOTION_DOT = -.191363E-1
MEAN_MOTION_DDOT = 0

CCSDS_OMM_VERS = 2.0
CREATION_DATE  = 
ORIGINATOR     = 

OBJECT_NAME    = STARLINK-35394
OBJECT_ID      = 2025-232U
CENTER_NAME    = EARTH
REF_FRAME      = TEME
TIME_SYSTEM    = UTC
MEAN_ELEMENT_THEORY = SGP/SGP4

EPOCH          = 2025-11-02T12:00:02.000160
MEAN_MOTION    = 15.59523016
ECCENTRICITY   = .0001186
INCLINATION    = 53.1594
RA_OF_ASC_NODE = 337.5775
ARG_OF_PERICENTER = 80.6860
MEAN_ANOMALY   = 209.0649

EPHEMERIS_TYPE = 0
CLASSIFICATION_TYPE = U
NORAD_CAT_ID   = 66023
ELEMENT_SET_NO = 999
REV_AT_EPOCH   = 307
BSTAR          = -.2678E-1
MEAN_MOTION_DOT = -.1912077E-1
MEAN_MOTION_DDOT = 0

CCSDS_OMM_VERS = 2.0
CREATION_DATE  = 
ORIGINATOR     = 

OBJECT_NAME    = STARLINK-35410
OBJECT_ID      = 2025-232V
CENTER_NAME    = EARTH
REF_FRAME      = TEME
TIME_SYSTEM    = UTC
MEAN_ELEMENT_THEORY = SGP/SGP4

EPOCH          = 2025-11-02T12:00:02.000160
MEAN_MOTION    = 15.59522959
ECCENTRICITY   = .0001241
INCLINATION    = 53.1594
RA_OF_ASC_NODE = 337.5696
ARG_OF_PERICENTER = 82.9363
MEAN_ANOMALY   = 210.6487

EPHEMERIS_TYPE = 0
CLASSIFICATION_TYPE = U
NORAD_CAT_ID   = 66024
ELEMENT_SET_NO = 999
REV_AT_EPOCH   = 307
BSTAR          = -.26784E-1
MEAN_MOTION_DOT = -.1912389E-1
MEAN_MOTION_DDOT = 0

CCSDS_OMM_VERS = 2.0
CREATION_DATE  = 
ORIGINATOR     = 

OBJECT_NAME    = STARLINK-35280
OBJECT_ID      = 2025-232W
CENTER_NAME    = EARTH
REF_FRAME      = TEME
TIME_SYSTEM    = UTC
MEAN_ELEMENT_THEORY = SGP/SGP4

EPOCH          = 2025-11-02T12:00:02.000160
MEAN_MOTION    = 15.59522859
ECCENTRICITY   = .0001198
INCLINATION    = 53.1593
RA_OF_ASC_NODE = 337.5732
ARG_OF_PERICENTER = 79.2663
MEAN_ANOMALY   = 212.4013

EPHEMERIS_TYPE = 0
CLASSIFICATION_TYPE = U
NORAD_CAT_ID   = 66025
ELEMENT_SET_NO = 999
REV_AT_EPOCH   = 301
BSTAR          = -.26779E-1
MEAN_MOTION_DOT = -.191206E-1
MEAN_MOTION_DDOT = 0

CCSDS_OMM_VERS = 2.0
CREATION_DATE  = 
ORIGINATOR     = 

OBJECT_NAME    = STARLINK-34812
OBJECT_ID      = 2025-232X
CENTER_NAME    = EARTH
REF_FRAME      = TEME
TIME_SYSTEM    = UTC
MEAN_ELEMENT_THEORY = SGP/SGP4

EPOCH          = 2025-11-02T12:00:02.000160
MEAN_MOTION    = 15.59526944
ECCENTRICITY   = .0001081
INCLINATION    = 53.1595
RA_OF_ASC_NODE = 337.5663
ARG_OF_PERICENTER = 75.3624
MEAN_ANOMALY   = 220.1365

EPHEMERIS_TYPE = 0
CLASSIFICATION_TYPE = U
NORAD_CAT_ID   = 66026
ELEMENT_SET_NO = 999
REV_AT_EPOCH   = 302
BSTAR          = -.26874E-1
MEAN_MOTION_DOT = -.191821E-1
MEAN_MOTION_DDOT = 0

CCSDS_OMM_VERS = 2.0
CREATION_DATE  = 
ORIGINATOR     = 

OBJECT_NAME    = STARLINK-35341
OBJECT_ID      = 2025-232Y
CENTER_NAME    = EARTH
REF_FRAME      = TEME
TIME_SYSTEM    = UTC
MEAN_ELEMENT_THEORY = SGP/SGP4

EPOCH          = 2025-11-02T12:00:02.000160
MEAN_MOTION    = 15.68325807
ECCENTRICITY   = .0001035
INCLINATION    = 53.1652
RA_OF_ASC_NODE = 337.4968
ARG_OF_PERICENTER = 53.6910
MEAN_ANOMALY   = 275.8284

EPHEMERIS_TYPE = 0
CLASSIFICATION_TYPE = U
NORAD_CAT_ID   = 66027
ELEMENT_SET_NO = 999
REV_AT_EPOCH   = 307
BSTAR          = -.19021E-2
MEAN_MOTION_DOT = -.212719E-2
MEAN_MOTION_DDOT = 0

CCSDS_OMM_VERS = 2.0
CREATION_DATE  = 
ORIGINATOR     = 

OBJECT_NAME    = STARLINK-35339
OBJECT_ID      = 2025-232Z
CENTER_NAME    = EARTH
REF_FRAME      = TEME
TIME_SYSTEM    = UTC
MEAN_ELEMENT_THEORY = SGP/SGP4

EPOCH          = 2025-11-02T12:00:02.000160
MEAN_MOTION    = 15.68329362
ECCENTRICITY   = .0000953
INCLINATION    = 53.1593
RA_OF_ASC_NODE = 337.4933
ARG_OF_PERICENTER = 80.1183
MEAN_ANOMALY   = 251.3142

EPHEMERIS_TYPE = 0
CLASSIFICATION_TYPE = U
NORAD_CAT_ID   = 66028
ELEMENT_SET_NO = 999
REV_AT_EPOCH   = 301
BSTAR          = -.19258E-2
MEAN_MOTION_DOT = -.215329E-2
MEAN_MOTION_DDOT = 0

CCSDS_OMM_VERS = 2.0
CREATION_DATE  = 
ORIGINATOR     = 

OBJECT_NAME    = STARLINK-35399
OBJECT_ID      = 2025-232AA
CENTER_NAME    = EARTH
REF_FRAME      = TEME
TIME_SYSTEM    = UTC
MEAN_ELEMENT_THEORY = SGP/SGP4

EPOCH          = 2025-11-02T12:00:02.000160
MEAN_MOTION    = 15.68328645
ECCENTRICITY   = .0000965
INCLINATION    = 53.1592
RA_OF_ASC_NODE = 337.4897
ARG_OF_PERICENTER = 74.4821
MEAN_ANOMALY   = 258.8662

EPHEMERIS_TYPE = 0
CLASSIFICATION_TYPE = U
NORAD_CAT_ID   = 66029
ELEMENT_SET_NO = 999
REV_AT_EPOCH   = 301
BSTAR          = -.19182E-2
MEAN_MOTION_DOT = -.21449E-2
MEAN_MOTION_DDOT = 0

CCSDS_OMM_VERS = 2.0
CREATION_DATE  = 
ORIGINATOR     = 

OBJECT_NAME    = STARLINK-35431
OBJECT_ID      = 2025-232AB
CENTER_NAME    = EARTH
REF_FRAME      = TEME
TIME_SYSTEM    = UTC
MEAN_ELEMENT_THEORY = SGP/SGP4

EPOCH          = 2025-11-02T12:00:02.000160
MEAN_MOTION    = 15.68343398
ECCENTRICITY   = .0000944
INCLINATION    = 53.1590
RA_OF_ASC_NODE = 337.4845
ARG_OF_PERICENTER = 82.0331
MEAN_ANOMALY   = 253.2354

EPHEMERIS_TYPE = 0
CLASSIFICATION_TYPE = U
NORAD_CAT_ID   = 66030
ELEMENT_SET_NO = 999
REV_AT_EPOCH   = 301
BSTAR          = -.21501E-2
MEAN_MOTION_DOT = -.239771E-2
MEAN_MOTION_DDOT = 0

CCSDS_OMM_VERS = 2.0
CREATION_DATE  = 
ORIGINATOR     = 

OBJECT_NAME    = STARLINK-35326
OBJECT_ID      = 2025-232AC
CENTER_NAME    = EARTH
REF_FRAME      = TEME
TIME_SYSTEM    = UTC
MEAN_ELEMENT_THEORY = SGP/SGP4

EPOCH          = 2025-11-02T12:00:02.000160
MEAN_MOTION    = 15.68329294
ECCENTRICITY   = .0000738
INCLINATION    = 53.1591
RA_OF_ASC_NODE = 337.4814
ARG_OF_PERICENTER = 88.7167
MEAN_ANOMALY   = 248.4711

EPHEMERIS_TYPE = 0
CLASSIFICATION_TYPE = U
NORAD_CAT_ID   = 66031
ELEMENT_SET_NO = 999
REV_AT_EPOCH   = 307
BSTAR          = -.20151E-2
MEAN_MOTION_DOT = -.22501E-2
MEAN_MOTION_DDOT = 0

CCSDS_OMM_VERS = 2.0
CREATION_DATE  = 
ORIGINATOR     = 

OBJECT_NAME    = STARLINK-35311
OBJECT_ID      = 2025-232AD
CENTER_NAME    = EARTH
REF_FRAME      = TEME
TIME_SYSTEM    = UTC
MEAN_ELEMENT_THEORY = SGP/SGP4

EPOCH          = 2025-11-02T12:00:02.000160
MEAN_MOTION    = 15.68344324
ECCENTRICITY   = .0000952
INCLINATION    = 53.1589
RA_OF_ASC_NODE = 337.4767
ARG_OF_PERICENTER = 79.5360
MEAN_ANOMALY   = 259.5632

EPHEMERIS_TYPE = 0
CLASSIFICATION_TYPE = U
NORAD_CAT_ID   = 66032
ELEMENT_SET_NO = 999
REV_AT_EPOCH   = 307
BSTAR          = -.21341E-2
MEAN_MOTION_DOT = -.238053E-2
MEAN_MOTION_DDOT = 0

CCSDS_OMM_VERS = 2.0
CREATION_DATE  = 
ORIGINATOR     = 

OBJECT_NAME    = QIANFAN-91
OBJECT_ID      = 2025-233A
CENTER_NAME    = EARTH
REF_FRAME      = TEME
TIME_SYSTEM    = UTC
MEAN_ELEMENT_THEORY = SGP/SGP4

EPOCH          = 2025-11-02T09:51:47.668032
MEAN_MOTION    = 14.25912350
ECCENTRICITY   = .0016192
INCLINATION    = 88.9947
RA_OF_ASC_NODE = 66.6737
ARG_OF_PERICENTER = 158.5632
MEAN_ANOMALY   = 201.6243

EPHEMERIS_TYPE = 0
CLASSIFICATION_TYPE = U
NORAD_CAT_ID   = 66033
ELEMENT_SET_NO = 999
REV_AT_EPOCH   = 229
BSTAR          = .28945E-3
MEAN_MOTION_DOT = .704E-5
MEAN_MOTION_DDOT = 0

